OBJECT_NAME,OBJECT_ID,EPOCH,MEAN_MOTION,ECCENTRICITY,INCLINATION,RA_OF_ASC_NODE,ARG_OF_PERICENTER,MEAN_ANOMALY,EPHEMERIS_TYPE,CLASSIFICATION_TYPE,NORAD_CAT_ID,ELEMENT_SET_NO,REV_AT_EPOCH,BSTAR,MEAN_MOTION_DOT,MEAN_MOTION_DDOT
STARLINK-36377,2026-032R,2026-07-06T18:30:18.143712,15.33415199,.000142,97.2871,15.3087,95.0281,265.1124,0,U,67812,999,2321,.58011E-3,.18682E-3,0
STARLINK-36732,2026-032S,2026-07-06T23:20:02.375808,15.33415074,.0001925,97.2860,15.4950,92.8493,267.2970,0,U,67813,999,2324,.21507E-3,.6868E-4,0
STARLINK-36767,2026-032T,2026-07-07T11:00:52.497216,15.33452646,.0001109,97.2874,15.9046,57.6088,302.5261,0,U,67814,999,2331,.4638E-3,.14931E-3,0
STARLINK-36797,2026-032U,2026-07-06T23:43:31.533888,15.33429476,.0001272,97.2871,15.4711,85.8989,274.2399,0,U,67815,999,2324,.48605E-3,.15641E-3,0
STARLINK-36343,2026-032V,2026-07-07T11:40:02.869248,15.33424513,.0001055,97.2877,16.0221,102.8721,257.2640,0,U,67816,999,2332,.41242E-3,.13254E-3,0
STARLINK-36756,2026-032W,2026-07-07T11:55:41.193120,15.33453475,.0001132,97.2881,16.0089,87.2738,272.8634,0,U,67817,999,2331,.38716E-3,.12448E-3,0
STARLINK-36346,2026-032X,2026-07-07T11:36:06.198048,15.33421328,.0002071,97.2872,16.0273,87.8387,272.3093,0,U,67818,999,2332,.49813E-3,.16029E-3,0
STARLINK-36788,2026-032Y,2026-07-06T23:47:26.450304,15.33428207,.000151,97.2869,15.4704,91.5783,268.5632,0,U,67819,999,2324,.45093E-3,.14503E-3,0
STARLINK-36353,2026-032Z,2026-07-06T12:41:49.838784,15.33416762,.0001787,97.2868,15.0279,95.9406,264.2040,0,U,67820,999,2317,.51611E-3,.16609E-3,0
STARLINK-36644,2026-033A,2026-07-07T09:41:44.640960,15.27602612,.0001857,43.0021,310.8987,256.8128,103.2516,0,U,67821,999,2298,.73084E-3,.19917E-3,0
STARLINK-36643,2026-033B,2026-07-07T08:44:36.212928,15.27597902,.0001753,43.0005,311.4709,273.7416,86.3235,0,U,67822,999,2297,.50593E-3,.13693E-3,0
STARLINK-36646,2026-033C,2026-07-07T09:51:01.821600,15.27582854,.0001945,43.0047,310.9508,269.9237,90.1392,0,U,67823,999,2298,.72619E-3,.19777E-3,0
STARLINK-36647,2026-033D,2026-07-07T09:36:12.062304,15.27596578,.0001509,43.0028,310.8730,258.9886,101.0796,0,U,67824,999,2298,.56128E-3,.15223E-3,0
STARLINK-36648,2026-033E,2026-07-07T09:10:17.201856,15.27596649,.000129,42.9960,310.7137,191.6458,168.4363,0,U,67825,999,2298,.56622E-3,.15359E-3,0
STARLINK-35865,2026-033F,2026-07-07T09:47:17.314656,15.27606247,.0001761,43.0040,310.9274,268.7496,91.3154,0,U,67826,999,2298,.47606E-3,.12871E-3,0
STARLINK-36289,2026-033G,2026-07-07T08:53:50.496576,15.27556631,.0003261,43.0029,311.5153,283.0450,77.0038,0,U,67827,999,2297,-.76558E-3,-.21258E-3,0
STARLINK-36670,2026-033H,2026-07-07T08:48:18.128736,15.27588536,.000165,42.9993,311.4813,250.7895,109.2779,0,U,67828,999,2297,.43344E-3,.11687E-3,0
STARLINK-36144,2026-033J,2026-07-07T10:15:03.642336,15.27602551,.0001512,43.0004,311.0714,267.3717,92.6961,0,U,67829,999,2298,.55096E-3,.1494E-3,0
STARLINK-36611,2026-033K,2026-07-07T09:06:48.352320,15.27597163,.0001224,43.0017,311.5792,248.8524,111.2197,0,U,67830,999,2297,.73349E-3,.19987E-3,0
STARLINK-36661,2026-033L,2026-07-07T09:01:16.434624,15.27608294,.0001762,43.0019,311.5563,271.8818,88.1832,0,U,67831,999,2297,.84848E-3,.2318E-3,0
STARLINK-36662,2026-033M,2026-07-07T08:20:04.889184,15.27601961,.000212,43.0031,304.2715,262.8570,97.2041,0,U,67832,999,2305,.87062E-3,.23789E-3,0
STARLINK-36659,2026-033N,2026-07-07T09:32:31.122816,15.27599591,.0001302,43.0034,310.8383,271.2777,88.7926,0,U,67833,999,2298,.73562E-3,.20048E-3,0
STARLINK-36655,2026-033P,2026-07-07T09:12:08.409024,15.27591585,.0002053,43.0019,310.7325,203.6568,156.4189,0,U,67834,999,2298,.78894E-3,.21519E-3,0
STARLINK-36657,2026-033Q,2026-07-07T09:21:24.939072,15.27598805,.0001179,42.9977,310.7778,253.1509,106.9213,0,U,67835,999,2298,.70263E-3,.19134E-3,0
STARLINK-36650,2026-033R,2026-07-07T08:35:22.464096,15.27601051,.0001573,43.0018,311.4128,276.5099,83.5573,0,U,67836,999,2297,.8203E-3,.22394E-3,0
STARLINK-36649,2026-033S,2026-07-07T08:50:09.792096,15.27609382,.0003099,43.0033,311.4905,289.0520,70.9996,0,U,67837,999,2297,.54589E-3,.14804E-3,0
STARLINK-36654,2026-033T,2026-07-07T10:03:58.063392,15.27616356,.0001604,42.9996,311.0090,259.7728,100.2943,0,U,67838,999,2298,.96234E-3,.26344E-3,0
STARLINK-36652,2026-033U,2026-07-07T09:58:24.353760,15.27595406,.0001928,43.0025,310.9847,255.3831,104.6807,0,U,67839,999,2298,.44456E-3,.11997E-3,0
STARLINK-36651,2026-033V,2026-07-07T09:52:52.163040,15.27605982,.0001891,43.0034,310.9539,295.2621,64.8035,0,U,67840,999,2298,.78394E-3,.2139E-3,0
STARLINK-36656,2026-033W,2026-07-07T09:43:35.776416,15.27599410,.0001709,43.0006,310.8994,276.6683,83.3975,0,U,67841,999,2298,.69155E-3,.18828E-3,0
