STARLINK-36377          
1 67812U 26032R   26187.77104333  .00018682  00000+0  58011-3 0  9991
2 67812  97.2871  15.3087 0001420  95.0281 265.1124 15.33415199 23216
STARLINK-36732          
1 67813U 26032S   26187.97224972  .00006868  00000+0  21507-3 0  9999
2 67813  97.2860  15.4950 0001925  92.8493 267.2970 15.33415074 23242
STARLINK-36767          
1 67814U 26032T   26188.45894094  .00014931  00000+0  46380-3 0  9998
2 67814  97.2874  15.9046 0001109  57.6088 302.5261 15.33452646 23312
STARLINK-36797          
1 67815U 26032U   26187.98855942  .00015641  00000+0  48605-3 0  9996
2 67815  97.2871  15.4711 0001272  85.8989 274.2399 15.33429476 23242
STARLINK-36343          
1 67816U 26032V   26188.48614432  .00013254  00000+0  41242-3 0  9998
2 67816  97.2877  16.0221 0001055 102.8721 257.2640 15.33424513 23321
STARLINK-36756          
1 67817U 26032W   26188.49700455  .00012448  00000+0  38716-3 0  9997
2 67817  97.2881  16.0089 0001132  87.2738 272.8634 15.33453475 23313
STARLINK-36346          
1 67818U 26032X   26188.48340507  .00016029  00000+0  49813-3 0  9994
2 67818  97.2872  16.0273 0002071  87.8387 272.3093 15.33421328 23325
STARLINK-36788          
1 67819U 26032Y   26187.99127836  .00014503  00000+0  45093-3 0  9999
2 67819  97.2869  15.4704 0001510  91.5783 268.5632 15.33428207 23243
STARLINK-36353          
1 67820U 26032Z   26187.52904906  .00016609  00000+0  51611-3 0  9993
2 67820  97.2868  15.0279 0001787  95.9406 264.2040 15.33416762 23174
STARLINK-36644          
1 67821U 26033A   26188.40398890  .00019917  00000+0  73084-3 0  9995
2 67821  43.0021 310.8987 0001857 256.8128 103.2516 15.27602612 22986
STARLINK-36643          
1 67822U 26033B   26188.36430802  .00013693  00000+0  50593-3 0  9996
2 67822  43.0005 311.4709 0001753 273.7416  86.3235 15.27597902 22974
STARLINK-36646          
1 67823U 26033C   26188.41043775  .00019777  00000+0  72619-3 0  9994
2 67823  43.0047 310.9508 0001945 269.9237  90.1392 15.27582854 22981
STARLINK-36647          
1 67824U 26033D   26188.40013961  .00015223  00000+0  56128-3 0  9997
2 67824  43.0028 310.8730 0001509 258.9886 101.0796 15.27596578 22989
STARLINK-36648          
1 67825U 26033E   26188.38214354  .00015359  00000+0  56622-3 0  9993
2 67825  42.9960 310.7137 0001290 191.6458 168.4363 15.27596649 22984
STARLINK-35865          
1 67826U 26033F   26188.40783929  .00012871  00000+0  47606-3 0  9994
2 67826  43.0040 310.9274 0001761 268.7496  91.3154 15.27606247 22989
STARLINK-36289          
1 67827U 26033G   26188.37072334 -.00021258  00000+0 -76558-3 0  9991
2 67827  43.0029 311.5153 0003261 283.0450  77.0038 15.27556631 22979
STARLINK-36670          
1 67828U 26033H   26188.36687649  .00011687  00000+0  43344-3 0  9992
2 67828  42.9993 311.4813 0001650 250.7895 109.2779 15.27588536 22973
STARLINK-36144          
1 67829U 26033J   26188.42712549  .00014940  00000+0  55096-3 0  9990
2 67829  43.0004 311.0714 0001512 267.3717  92.6961 15.27602551 22982
STARLINK-36611          
1 67830U 26033K   26188.37972630  .00019987  00000+0  73349-3 0  9992
2 67830  43.0017 311.5792 0001224 248.8524 111.2197 15.27597163 22979
STARLINK-36661          
1 67831U 26033L   26188.37588466  .00023180  00000+0  84848-3 0  9999
2 67831  43.0019 311.5563 0001762 271.8818  88.1832 15.27608294 22973
STARLINK-36662          
1 67832U 26033M   26188.34727881  .00023789  00000+0  87062-3 0  9999
2 67832  43.0031 304.2715 0002120 262.8570  97.2041 15.27601961 23057
STARLINK-36659          
1 67833U 26033N   26188.39758244  .00020048  00000+0  73562-3 0  9997
2 67833  43.0034 310.8383 0001302 271.2777  88.7926 15.27599591 22982
STARLINK-36655          
1 67834U 26033P   26188.38343066  .00021519  00000+0  78894-3 0  9996
2 67834  43.0019 310.7325 0002053 203.6568 156.4189 15.27591585 22981
STARLINK-36657          
1 67835U 26033Q   26188.38987198  .00019134  00000+0  70263-3 0  9999
2 67835  42.9977 310.7778 0001179 253.1509 106.9213 15.27598805 22988
STARLINK-36650          
1 67836U 26033R   26188.35789889  .00022394  00000+0  82030-3 0  9991
2 67836  43.0018 311.4128 0001573 276.5099  83.5573 15.27601051 22971
STARLINK-36649          
1 67837U 26033S   26188.36816889  .00014804  00000+0  54589-3 0  9999
2 67837  43.0033 311.4905 0003099 289.0520  70.9996 15.27609382 22979
STARLINK-36654          
1 67838U 26033T   26188.41942203  .00026344  00000+0  96234-3 0  9991
2 67838  42.9996 311.0090 0001604 259.7728 100.2943 15.27616356 22980
STARLINK-36652          
1 67839U 26033U   26188.41555965  .00011997  00000+0  44456-3 0  9994
2 67839  43.0025 310.9847 0001928 255.3831 104.6807 15.27595406 22989
STARLINK-36651          
1 67840U 26033V   26188.41171485  .00021390  00000+0  78394-3 0  9993
2 67840  43.0034 310.9539 0001891 295.2621  64.8035 15.27605982 22989
STARLINK-36656          
1 67841U 26033W   26188.40527519  .00018828  00000+0  69155-3 0  9993
2 67841  43.0006 310.8994 0001709 276.6683  83.3975 15.27599410 22989
